{"type":"FeatureCollection","name":"Administrasi_Desa_AR (contoh Bojonegoro-Nganjuk)","crs":{"type":"name","properties":{"name":"EPSG:4326"}},"features":[{"type":"Feature","properties":{"nama_desa":"Kadipaten","kecamatan":"Bojonegoro","kabupaten":"Bojonegoro"},"geometry":{"type":"Polygon","coordinates":[[[111.800000,-7.140000],[111.825000,-7.140000],[111.825000,-7.118000],[111.800000,-7.118000],[111.800000,-7.140000]]]}},{"type":"Feature","properties":{"nama_desa":"Sukorejo","kecamatan":"Bojonegoro","kabupaten":"Bojonegoro"},"geometry":{"type":"Polygon","coordinates":[[[111.828000,-7.140000],[111.853000,-7.140000],[111.853000,-7.118000],[111.828000,-7.118000],[111.828000,-7.140000]]]}},{"type":"Feature","properties":{"nama_desa":"Ngronggot","kecamatan":"Ngronggot","kabupaten":"Nganjuk"},"geometry":{"type":"Polygon","coordinates":[[[111.880000,-7.580000],[111.905000,-7.580000],[111.905000,-7.558000],[111.880000,-7.558000],[111.880000,-7.580000]]]}}]}
