{"type":"FeatureCollection","name":"Kawasan Hutan (contoh Nganjuk)","crs":{"type":"name","properties":{"name":"EPSG:4326"}},"features":[{"type":"Feature","properties":{"nama":"Blok HK Nganjuk 1","zona":"HK"},"geometry":{"type":"Polygon","coordinates":[[[111.800000,-7.580000],[111.820000,-7.580000],[111.820000,-7.565000],[111.800000,-7.565000],[111.800000,-7.580000]]]}},{"type":"Feature","properties":{"nama":"Blok HSAL Nganjuk 1","zona":"HSAL"},"geometry":{"type":"Polygon","coordinates":[[[111.830000,-7.580000],[111.850000,-7.580000],[111.850000,-7.565000],[111.830000,-7.565000],[111.830000,-7.580000]]]}},{"type":"Feature","properties":{"nama":"Blok HL Nganjuk 1","zona":"HL"},"geometry":{"type":"Polygon","coordinates":[[[111.860000,-7.600000],[111.880000,-7.600000],[111.880000,-7.585000],[111.860000,-7.585000],[111.860000,-7.600000]]]}},{"type":"Feature","properties":{"nama":"Blok HPT Nganjuk 1","zona":"HPT"},"geometry":{"type":"Polygon","coordinates":[[[111.890000,-7.620000],[111.910000,-7.620000],[111.910000,-7.605000],[111.890000,-7.605000],[111.890000,-7.620000]]]}},{"type":"Feature","properties":{"nama":"Blok HP Nganjuk 1","zona":"HP"},"geometry":{"type":"Polygon","coordinates":[[[111.920000,-7.640000],[111.940000,-7.640000],[111.940000,-7.625000],[111.920000,-7.625000],[111.920000,-7.640000]]]}},{"type":"Feature","properties":{"nama":"Blok HPK Nganjuk 1","zona":"HPK"},"geometry":{"type":"Polygon","coordinates":[[[111.950000,-7.660000],[111.970000,-7.660000],[111.970000,-7.645000],[111.950000,-7.645000],[111.950000,-7.660000]]]}},{"type":"Feature","properties":{"nama":"Blok APL Nganjuk 1","zona":"APL"},"geometry":{"type":"Polygon","coordinates":[[[111.980000,-7.620000],[112.000000,-7.620000],[112.000000,-7.605000],[111.980000,-7.605000],[111.980000,-7.620000]]]}},{"type":"Feature","properties":{"nama":"Danau Nganjuk 1","zona":"Danau"},"geometry":{"type":"Polygon","coordinates":[[[111.860000,-7.680000],[111.870000,-7.680000],[111.870000,-7.672000],[111.860000,-7.672000],[111.860000,-7.680000]]]}},{"type":"Feature","properties":{"nama":"Sungai Widas 1","zona":"Tubuh Air"},"geometry":{"type":"Polygon","coordinates":[[[111.900000,-7.700000],[111.912000,-7.700000],[111.912000,-7.692000],[111.900000,-7.692000],[111.900000,-7.700000]]]}}]}
