{"type":"FeatureCollection","name":"KHDPK_FINAL_DESA (contoh Bojonegoro-Nganjuk)","crs":{"type":"name","properties":{"name":"EPSG:4326"}},"features":[{"type":"Feature","properties":{"nama_desa":"Sukorejo","kecamatan":"Bojonegoro","kabupaten":"Bojonegoro"},"geometry":{"type":"Polygon","coordinates":[[[111.810000,-7.160000],[111.835000,-7.160000],[111.835000,-7.140000],[111.810000,-7.140000],[111.810000,-7.160000]]]}},{"type":"Feature","properties":{"nama_desa":"Tanjungharjo","kecamatan":"Nganjuk","kabupaten":"Nganjuk"},"geometry":{"type":"Polygon","coordinates":[[[111.890000,-7.560000],[111.915000,-7.560000],[111.915000,-7.540000],[111.890000,-7.540000],[111.890000,-7.560000]]]}}]}
