{"type":"FeatureCollection","name":"Persetujuan_PS_April26 (contoh Bojonegoro)","crs":{"type":"name","properties":{"name":"EPSG:4326"}},"features":[{"type":"Feature","properties":{"nama":"PS Bojonegoro Utara 1","skema":"IPHPS","kabupaten":"Bojonegoro"},"geometry":{"type":"Polygon","coordinates":[[[111.840000,-7.120000],[111.860000,-7.120000],[111.860000,-7.105000],[111.840000,-7.105000],[111.840000,-7.120000]]]}},{"type":"Feature","properties":{"nama":"PS Bojonegoro Timur 1","skema":"PKK","kabupaten":"Bojonegoro"},"geometry":{"type":"Polygon","coordinates":[[[111.870000,-7.150000],[111.890000,-7.150000],[111.890000,-7.135000],[111.870000,-7.135000],[111.870000,-7.150000]]]}},{"type":"Feature","properties":{"nama":"PS Dander 1","skema":"PPHD","kabupaten":"Bojonegoro"},"geometry":{"type":"Polygon","coordinates":[[[111.900000,-7.180000],[111.920000,-7.180000],[111.920000,-7.165000],[111.900000,-7.165000],[111.900000,-7.180000]]]}},{"type":"Feature","properties":{"nama":"PS Temayang 1","skema":"PPHKm","kabupaten":"Bojonegoro"},"geometry":{"type":"Polygon","coordinates":[[[111.850000,-7.220000],[111.870000,-7.220000],[111.870000,-7.205000],[111.850000,-7.205000],[111.850000,-7.220000]]]}},{"type":"Feature","properties":{"nama":"PS Ngasem 1","skema":"PPHTR","kabupaten":"Bojonegoro"},"geometry":{"type":"Polygon","coordinates":[[[111.930000,-7.250000],[111.950000,-7.250000],[111.950000,-7.235000],[111.930000,-7.235000],[111.930000,-7.250000]]]}}]}
