{"type":"FeatureCollection","name":"RPKHDPK_AR_4326 (contoh Bojonegoro-Nganjuk)","crs":{"type":"name","properties":{"name":"EPSG:4326"}},"features":[{"type":"Feature","properties":{"nama":"Blok Jatirogo 1","fungsi":"Jasa Lingkungan"},"geometry":{"type":"Polygon","coordinates":[[[111.820000,-7.330000],[111.840000,-7.330000],[111.840000,-7.315000],[111.820000,-7.315000],[111.820000,-7.330000]]]}},{"type":"Feature","properties":{"nama":"Blok Margomulyo 1","fungsi":"Penataan"},"geometry":{"type":"Polygon","coordinates":[[[111.850000,-7.370000],[111.870000,-7.370000],[111.870000,-7.355000],[111.850000,-7.355000],[111.850000,-7.370000]]]}},{"type":"Feature","properties":{"nama":"Blok Ngraho 1","fungsi":"Penggunaan"},"geometry":{"type":"Polygon","coordinates":[[[111.880000,-7.410000],[111.900000,-7.410000],[111.900000,-7.395000],[111.880000,-7.395000],[111.880000,-7.410000]]]}},{"type":"Feature","properties":{"nama":"Blok Rejoso 1","fungsi":"Perhutanan Sosial"},"geometry":{"type":"Polygon","coordinates":[[[111.910000,-7.450000],[111.930000,-7.450000],[111.930000,-7.435000],[111.910000,-7.435000],[111.910000,-7.450000]]]}},{"type":"Feature","properties":{"nama":"Blok Gondang 1","fungsi":"Rehabilitasi"},"geometry":{"type":"Polygon","coordinates":[[[111.940000,-7.490000],[111.960000,-7.490000],[111.960000,-7.475000],[111.940000,-7.475000],[111.940000,-7.490000]]]}},{"type":"Feature","properties":{"nama":"Blok Lengkong 1","fungsi":"Lain-lain"},"geometry":{"type":"Polygon","coordinates":[[[111.970000,-7.530000],[111.990000,-7.530000],[111.990000,-7.515000],[111.970000,-7.515000],[111.970000,-7.530000]]]}}]}
